#aV2013 10 24  0  0  0.00000000     288 DD+AD WGS84 FIT  NGA
## 1763 345600.00000000   300.00000000 56589 0.0000000000000
+   31     1  2  3  4  5  6  7  8  9 10 11 12 13 14 15 16 17
+         18 19 20 21 22 23 24 25 26 27 28 29 31 32  0  0  0
+          0  0  0  0  0  0  0  0  0  0  0  0  0  0  0  0  0
+          0  0  0  0  0  0  0  0  0  0  0  0  0  0  0  0  0
+          0  0  0  0  0  0  0  0  0  0  0  0  0  0  0  0  0
++         2  2  2  2  2  2  2  2  2  2  2  2  2  2  2  2  2
++         2  2  2  2  2  2  2  2  2  2  2  2  2  2  2  0  0
++         0  0  0  0  0  0  0  0  0  0  0  0  0  0  0  0  0
++         0  0  0  0  0  0  0  0  0  0  0  0  0  0  0  0  0
++         0  0  0  0  0  0  0  0  0  0  0  0  0  0  0  0  0
%c cc cc ccc ccc cccc cccc cccc cccc ccccc ccccc ccccc ccccc
%c cc cc ccc ccc cccc cccc cccc cccc ccccc ccccc ccccc ccccc
%f  0.0000000  0.000000000  0.00000000000  0.000000000000000
%f  0.0000000  0.000000000  0.00000000000  0.000000000000000
%i    0    0    0    0      0      0      0      0         0
%i    0    0    0    0      0      0      0      0         0
/*      NGA, ST. LOUIS,MO.                                  
/*   EPHEMERIS COMPUTED FROM  1 DAYS OF DATA
/*   EPOCHA SMOOTHER  
/* CCCCCCCCCCCCCCCCCCCCCCCCCCCCCCCCCCCCCCCCCCCCCCCCCCCCCCCCC
*  2013 10 24  1 25  0.00000000                                                 
P  1 -13377.412705  17792.328102  14374.377499     87.775793                    
V  1   1033.070888 -18457.561013  23859.482869      0.035519                    
P  2  14399.230989   7264.554931 -20932.963407    457.327183                    
V  2  -4521.829894  26758.330829   5605.243661      0.020136                    
P  3 -23856.226473  -6478.808910   9413.301188    276.630860                    
V  3  -9146.878237  -9382.262597 -27865.535515      0.050028                    
P  4   8465.568880  19675.488099 -15841.038370      2.417627                    
V  4  -5731.625198  19052.596716  21263.333680      0.003960                    
P  5  24029.567822    -67.280402 -11518.456206   -398.649146                    
V  5 -12744.210124   7472.346829 -26552.965382      0.004861                    
P  6 -23138.469691 -12621.025327   4729.443915    116.599231                    
V  6  -2995.598348  -5881.500922 -30334.219097      0.179298                    
P  7  -5671.989357  25749.253957   -848.987294    272.855058                    
V  7  -2382.095938  -1656.683402 -32250.017407      0.041710                    
P  8    124.045625  23998.469791  10801.137123      9.358712                    
V  8  -5682.072801  12576.607914 -28820.557239      0.003211                    
P  9   2088.179596  24470.665651   9407.266994    277.773813                    
V  9  -4292.634241  12169.296471 -29207.057979      0.028352                    
P 10  10910.714902  12445.903440 -21154.527616    -99.045341              E     
V 10 -24504.940626   9099.775127  -6971.591033     -0.012250                    
P 11 -14195.796454  10868.644202  19109.833353   -431.454884                    
V 11  -5298.102927 -25185.200847  10382.589550     -0.035922                    
P 12  23504.404252 -11108.061455  -4922.449036    163.868003                    
V 12   6564.819624     97.387220  31625.619632      0.022256                    
P 13  -2579.018776  16954.677558 -20370.724461     67.056030                    
V 13 -18472.824754 -17694.446843 -12606.023093     -0.038309                    
P 14 -13976.103343 -21245.249046   8137.921169    212.575662                    
V 14   8647.881947   5420.004277  29655.825095     -0.010125                    
P 15  18448.786108  -3135.559684  18913.870767   -143.492924                    
V 15  18020.193109  16028.450528 -14624.526970     -0.019346                    
P 16 -24064.686783   -665.210657 -11624.473760   -243.729225                    
V 16  13491.330444  -5646.807286 -27350.003882      0.009491                    
P 17  13738.816667  21044.261939   9186.958904    -33.962067                    
V 17  -9794.463818  -5972.409391  28812.968474     -0.036526                    
P 18   6264.732384 -17637.907049  19146.434811    281.015620                    
V 18  22830.277272  -6495.194151 -14103.681043      0.020779                    
P 19 -19412.707338  -1677.181955  18121.416025   -413.547281                    
V 19 -15339.572721 -17304.367829 -17498.422092     -0.026920                    
P 20 -20125.543940  15331.427768  -8135.869797    131.572590                    
V 20 -10752.816082    735.327598  28699.422855      0.027672                    
P 21   2568.706631 -26086.515862   2529.322494   -325.036906                    
V 21   4496.467884  -1841.142060 -31199.347332     -0.018610                    
P 22  -6932.732415 -14564.631444  21306.125958    191.274091                    
V 22  25044.850071  -9354.688090   1622.668119      0.018225                    
P 23 -12291.456453   9519.659048 -21471.664609     36.538535                    
V 23 -20764.297102 -17992.019870   3494.612317     -0.034122                    
P 24  14582.936582 -13961.028758  17225.461950    -16.067119                    
V 24  -1793.426788  21911.982148  19328.385444     -0.006831                    
P 25  13808.443261 -16440.081006 -15627.747681    160.302972                    
V 25  19112.127563  -5265.308842  22605.617020      0.035247                    
P 26  21358.246601  11579.073330  10453.795039    253.903039                    
V 26   8526.983988  11409.878788 -28023.264061      0.191518                    
P 27 -22619.658200 -10818.553839   8773.969910    -51.029118                    
V 27  -6940.205673  -9098.940155 -29058.588586     -0.039726                    
P 28   2576.173742  14802.559125  22488.167241    303.035272                    
V 28 -25975.802980   7591.944600  -2243.132497      0.030804                    
P 29   5656.644785 -14773.719556 -21300.612709    481.349376                    
V 29  20295.806545  17986.606642  -7036.938164      0.030868                    
P 31  -8139.635602 -18167.087311 -17264.044853    328.452442                    
V 31   5995.245897 -21565.853603  19950.407731      0.007050                    
P 32 -25456.362755   6431.115128    644.137718   -537.422699                    
V 32   -269.595754  -3725.219590  31832.047864      0.038582                    
EOF
